GOES 3                  
1 10953U 78062A   16166.34184596 -.00000141  00000-0  00000+0 0  9997
2 10953  13.8402 335.1690 0003852 176.5649 132.8497  1.00274815 92273
TDRS 3                  
1 19548U 88091B   16165.24288616 -.00000310  00000-0  00000+0 0  9993
2 19548  14.8100  12.0616 0036291 309.5792 325.4096  1.00267373 88706
SKYNET 4C               
1 20776U 90079A   16164.33348548 -.00000048  00000-0  00000+0 0  9995
2 20776  13.6272  19.9056 0002356  72.6361 287.3684  1.00274670 94273
TDRS 5                  
1 21639U 91054B   16166.43695256  .00000079  00000-0  00000+0 0  9995
2 21639  14.1027  25.4021 0024377 335.4374 251.8909  1.00273644 91061
TDRS 6                  
1 22314U 93003B   16166.43341378 -.00000299  00000-0  00000+0 0  9990
2 22314  13.6003  28.2737 0003308 283.1824  61.8617  1.00275478 85723
INTELSAT 701 (IS-701)   
1 22871U 93066A   16166.12734633 -.00000223  00000-0  00000+0 0  9990
2 22871   3.4989  69.0084 0003984  13.0168 197.1536  1.00269585 82700
NATO 4B                 
1 22921U 93076A   16165.80267501  .00000123  00000-0  00000+0 0  9994
2 22921  11.9860  26.7061 0002393  52.3020 145.0506  1.00269695 82441
INTELSAT 702 (IS-702)   
1 23124U 94034A   16165.36644713  .00000143  00000-0  00000-0 0  9993
2 23124   3.8421  67.1919 0001013 118.5898 241.1259  1.00271808 94701
OPTUS B3                
1 23227U 94055A   16165.43660529 -.00000089  00000-0  00000-0 0  9991
2 23227   6.8113  52.9667 0003160  27.3507 143.2501  1.00272973 79807
ASTRA 1D                
1 23331U 94070A   16166.09625949 -.00000293  00000-0  00000+0 0  9990
2 23331   6.9907  52.0832 0003547  27.2823 170.7901  1.00274031 79513
BRASILSAT B2            
1 23536U 95016A   16166.37099957 -.00000293  00000-0  00000+0 0  9993
2 23536   6.6107  53.9164 0001846  31.2982 248.2197  1.00271685 77662
AMSC 1                  
1 23553U 95019A   16164.68080217 -.00000124  00000-0  00000+0 0  9999
2 23553   9.5953  43.2714 0003502  20.4262 339.5159  1.00272199 77503
TDRS 7                  
1 23613U 95035B   16165.82501084 -.00000210  00000-0  00000+0 0  9997
2 23613  14.7974  19.1135 0023628  30.6735 234.6471  1.00274184 76494
ECHOSTAR 1              
1 23754U 95073A   16166.25594248 -.00000246  00000-0  00000+0 0  9996
2 23754   0.0512  92.1146 0002688 343.4733 202.3889  1.00272203 74791
INMARSAT 3-F1           
1 23839U 96020A   16165.78865831  .00000002  00000-0  00000-0 0  9999
2 23839   3.2848  69.2437 0005362  12.7963 168.8651  1.00272054 73665
ASTRA 1F                
1 23842U 96021A   16165.91990201  .00000133  00000-0  00000-0 0  9994
2 23842   0.0788 302.1509 0003723 151.2182 184.7643  1.00272974 15707
MSAT M1                 
1 23846U 96022A   16165.71290059 -.00000090  00000-0  00000+0 0  9993
2 23846   7.1816  51.6774 0005286  27.2723 332.6296  1.00272657 73788
PALAPA C2               
1 23864U 96030A   16165.65355360 -.00000246  00000-0  00000+0 0  9995
2 23864   4.8951  61.3659 0000799 339.0108 243.3219  1.00273295 73521
INMARSAT 3-F2           
1 24307U 96053A   16166.35572154 -.00000129  00000-0  00000+0 0  9993
2 24307   1.8845  79.5681 0005281 352.4709 303.6045  1.00272682 72374
AMC-1 (GE-1)            
1 24315U 96054A   16164.63279916  .00000049  00000-0  00000+0 0  9992
2 24315   0.8065  86.9149 0002809 350.2553 282.8552  1.00272234 72366
AFRICASAT-2 (MEASAT-2)  
1 24653U 96063B   16165.81325718 -.00000233  00000-0  00000-0 0  9997
2 24653   6.9086  52.5277 0007037 152.4063 138.3853  1.00271437 71809
EUTELSAT 48A            
1 24665U 96067A   16165.88641348  .00000109  00000-0  00000+0 0  9991
2 24665   5.7385  57.6377 0004414  13.9459 198.3389  1.00271936 72023
INMARSAT 3-F3           
1 24674U 96070A   16165.51769831  .00000031  00000-0  00000-0 0  9998
2 24674   2.7107  73.5869 0004504   7.6721 185.4833  1.00274215 71312
AMC-2 (GE-2)            
1 24713U 97002A   16165.91527498 -.00000235  00000-0  00000-0 0  9990
2 24713   3.6514  67.9239 0004965  15.3288  68.0341  1.00272636 70933
INTELSAT 26 (IS-26)     
1 24732U 97007A   16165.83418777  .00000014  00000-0  00000-0 0  9990
2 24732   6.8796  52.8151 0004432  28.5368 183.7137  1.00273498 36084
GALAXY 25 (G-25)        
1 24812U 97026A   16165.53023775 -.00000169  00000-0  00000+0 0  9998
2 24812   0.0269  16.8798 0002768  59.1233 284.0277  1.00269610 69708
ABS-3                   
1 24901U 97042A   16166.04530352  .00000135  00000-0  00000+0 0  9998
2 24901   4.2124  65.4610 0005940   9.7975 227.6735  1.00381695 68872
INTELSAT 5 (IS-5)       
1 24916U 97046A   16166.03556618 -.00000147  00000-0  00000+0 0  9994
2 24916   2.8291  72.9612 0004195   8.0921 351.4951  1.00271427 68963
METEOSAT-7              
1 24932U 97049B   16165.22477155  .00000039  00000-0  00000-0 0  9993
2 24932  10.1957  40.6928 0000692 121.6719 238.2727  1.00276628 68757
AMC-3 (GE-3)            
1 24936U 97050A   16164.23742810 -.00000284  00000-0  10000-3 0  9999
2 24936   0.0141 311.4523 0001757  72.3963 255.6117  1.00270363 68778
NSS-5                   
1 24957U 97053A   16165.91192252  .00000103  00000-0  00000-0 0  9995
2 24957   3.1294  71.1959 0003345   7.3663 202.8320  1.00274252 68521
ECHOSTAR 3              
1 25004U 97059A   16164.67040522 -.00000292  00000-0  00000-0 0  9999
2 25004   1.4009  81.7879 0000847   5.3007 353.8729  1.00273807 68392
JCSAT-1B                
1 25067U 97075A   16165.65131654 -.00000214  00000-0  00000+0 0  9995
2 25067   4.9100  61.1929 0001323  49.6391 175.9907  1.00269216 67890
ASTRA 1G                
1 25071U 97076A   16165.84579322  .00000019  00000-0  00000+0 0  9992
2 25071   1.5780  79.5498 0003525 357.9475 192.3403  1.00272624 67880
BRASILSAT B3            
1 25152U 98006A   16165.72112547 -.00000178  00000-0  00000-0 0  9993
2 25152   3.3273  70.4152 0002379   1.0489 358.6019  1.00272106  6868
INMARSAT 3-F5           
1 25153U 98006B   16166.33567398 -.00000292  00000-0  00000+0 0  9996
2 25153   1.8492  74.5132 0005510   4.5847 250.7695  1.00268904 67246
NSS-806                 
1 25239U 98014A   16165.35662688 -.00000286  00000-0  00000+0 0  9992
2 25239   0.0579 342.9619 0004568 101.5428 258.4774  1.00273133 66999
CHINASAT 5A (ZX 5A)     
1 25354U 98033A   16165.01394926 -.00000093  00000-0  00000-0 0  9998
2 25354   0.4753  88.8720 0005751 344.0887 356.7686  1.00271432 70586
THOR III                
1 25358U 98035A   16164.45630801 -.00000053  00000-0  00000+0 0  9991
2 25358   4.7873  61.3934 0001825  17.4720 342.3136  1.00271341 66044
INTELSAT 805 (IS-805)   
1 25371U 98037A   16165.69429453 -.00000038  00000-0  00000-0 0  9998
2 25371   0.0271 303.8136 0003185 136.2332 241.3120  1.00271962 65890
ASTRA 2A                
1 25462U 98050A   16165.93228763 -.00000354  00000-0  00000-0 0  9993
2 25462   0.0086 122.8885 0006118  85.8654 132.5087  1.00554311  9680
AFRISTAR                
1 25515U 98063A   16165.80386373  .00000118  00000-0  00000+0 0  9990
2 25515   2.5911  70.6728 0004357  16.0154 126.2247  1.00273968 64475
INTELSAT 8 (IS-8)       
1 25522U 98065A   16165.58439615 -.00000039  00000-0  00000-0 0  9997
2 25522   0.2549  89.1385 0003321 337.1231 215.3222  1.00272837  9917
JCSAT-4A                
1 25630U 99006A   16166.09479376 -.00000161  00000-0  00000+0 0  9993
2 25630   1.5452  81.8519 0001918 352.9262 304.0993  1.00272299 63341
SKYNET 4E               
1 25639U 99009B   16162.82810994  .00000008  00000-0  00000-0 0  9997
2 25639   9.7760  31.5726 0002402  38.4899 133.6014  1.00270190 14710
ASIASAT 3S              
1 25657U 99013A   16165.76107262 -.00000206  00000-0  00000+0 0  9995
2 25657   1.7639  80.0110 0001818 347.7087 259.1286  1.00269929 63164
NIMIQ 1                 
1 25740U 99027A   16165.37150961 -.00000206  00000-0  00000+0 0  9994
2 25740   0.0465 284.6439 0005602 144.6488 240.0526  1.00272856 62546
ASTRA 1H                
1 25785U 99033A   16166.13961289  .00000068  00000-0  00000+0 0  9993
2 25785   3.1133  71.3675 0002580 271.1695 336.6739  1.00495817 62139
TELKOM 1                
1 25880U 99042A   16165.85893823 -.00000350  00000-0  00000+0 0  9990
2 25880   0.0143   3.4180 0001799 104.6309 211.7811  1.00266936 61706
ABS-7                   
1 25894U 99046A   16165.72339877 -.00000369  00000-0  00000-0 0  9990
2 25894   0.0136  11.9100 0002559  51.9417 215.1429  1.00268555 60473
ABS-6                   
1 25924U 99053A   16165.82896422 -.00000126  00000-0  00000+0 0  9997
2 25924   0.0301  19.6557 0003021  79.6845 260.6940  1.00271145 61225
TELSTAR 12 (ORION 2)    
1 25949U 99059A   16165.32764236 -.00000245  00000-0  00000+0 0  9994
2 25949   0.1690  88.1149 0004302 280.5719 308.4593  0.99714979 60877
AMC-4 (GE-4)            
1 25954U 99060A   16165.35846523 -.00000280  00000-0  10000-3 0  9999
2 25954   0.0285  56.1088 0003032  27.0711 240.9539  1.00271086 60829
GALAXY 11 (G-11)        
1 26038U 99071A   16165.90831550  .00000043  00000-0  00000-0 0  9992
2 26038   0.0416  76.7336 0001913 282.8209 290.1921  1.00262879  6970
HISPASAT 1C             
1 26071U 00007A   16166.41370609 -.00000217  00000-0  00000+0 0  9993
2 26071   0.0423  49.3438 0002701  52.3153 226.5765  1.00272900 59982
SUPERBIRD-B2            
1 26095U 00012A   16165.76239049 -.00000100  00000-0  00000+0 0  9995
2 26095   0.0214  53.4238 0002130  45.2636 240.2488  1.00269896 59775
ASIASTAR                
1 26107U 00016A   16166.44706104 -.00000337  00000-0  00000+0 0  9992
2 26107   0.9208  81.7054 0004248 355.1680  92.2502  1.00273347 59504
EUTELSAT 16C            
1 26243U 00019A   16165.97133766  .00000085  00000-0  00000-0 0  9991
2 26243   3.5701  68.2175 0002458  16.7124 181.9284  1.00270998 59096
EUTELSAT 36A            
1 26369U 00028A   16165.66152300 -.00000051  00000-0  00000+0 0  9994
2 26369   0.2612  75.9422 0007244  41.5333  93.5614  1.00272278 58824
